[{"OBJECT_NAME":"STARLINK-3545","OBJECT_ID":"2022-022D","EPOCH":"2026-03-09T07:18:15.157440","MEAN_MOTION":15.08856005,"ECCENTRICITY":0.00011808,"INCLINATION":53.2201,"RA_OF_ASC_NODE":20.7719,"ARG_OF_PERICENTER":82.2196,"MEAN_ANOMALY":277.893,"EPHEMERIS_TYPE":0,"CLASSIFICATION_TYPE":"U","NORAD_CAT_ID":51855,"ELEMENT_SET_NO":999,"REV_AT_EPOCH":22291,"BSTAR":0.0002050944,"MEAN_MOTION_DOT":2.979e-5,"MEAN_MOTION_DDOT":0},{"OBJECT_NAME":"ARIANE 6 R\/B","OBJECT_ID":"2024-128E","EPOCH":"2026-03-09T18:39:06.277536","MEAN_MOTION":15.00137067,"ECCENTRICITY":0.00536237,"INCLINATION":62.0121,"RA_OF_ASC_NODE":216.5937,"ARG_OF_PERICENTER":115.5687,"MEAN_ANOMALY":245.096,"EPHEMERIS_TYPE":0,"CLASSIFICATION_TYPE":"U","NORAD_CAT_ID":60239,"ELEMENT_SET_NO":999,"REV_AT_EPOCH":9111,"BSTAR":0.00020908474,"MEAN_MOTION_DOT":2.489e-5,"MEAN_MOTION_DDOT":0}]
